{
  "fetched_at": "2026-07-12T01:29:24.092634+00:00",
  "satellites": {
    "57166": {
      "name": "Meteor M2-3",
      "tle_line1": "1 57166U 23091A   26192.76051840 -.00000022  00000+0  91161-5 0  9998",
      "tle_line2": "2 57166  98.6070 247.2344 0005148  97.9745 262.2019 14.24048732158014"
    },
    "59051": {
      "name": "Meteor M2-4",
      "tle_line1": "1 59051U 24039A   26192.80312047 -.00000010  00000+0  15084-4 0  9996",
      "tle_line2": "2 59051  98.7023 151.7935 0008235  97.2220 262.9895 14.22431981122766"
    },
    "38771": {
      "name": "MetOp-B",
      "tle_line1": "1 38771U 12049A   26192.75603837  .00000046  00000+0  40641-4 0  9999",
      "tle_line2": "2 38771  98.6491 243.7635 0001054 276.8826  83.2232 14.21445767716751"
    },
    "43689": {
      "name": "MetOp-C",
      "tle_line1": "1 43689U 18087A   26192.77396834  .00000040  00000+0  37959-4 0  9991",
      "tle_line2": "2 43689  98.6632 251.9266 0002222  98.2812 261.8618 14.21518439398320"
    },
    "60543": {
      "name": "Arctic Weather Satellite",
      "tle_line1": "1 60543U 24149CD  26189.78066256  .00000618  00000+0  69970-4 0  9993",
      "tle_line2": "2 60543  97.6793 259.6278 0003307  64.1630 295.9929 14.89821552102512"
    }
  }
}